NORAD_CAT_ID,OBJECT_NAME,OBJECT_TYPE,EPOCH,MEAN_MOTION,ECCENTRICITY,INCLINATION,RA_OF_ASC_NODE,ARG_OF_PERICENTER,MEAN_ANOMALY,BSTAR,MEAN_MOTION_DOT,MEAN_MOTION_DDOT,TLE_LINE0,TLE_LINE1,TLE_LINE2,SEMIMAJOR_AXIS,PERIOD,APOGEE,PERIGEE,DECAYED
51771.0,STARLINK-3614,PAYLOAD,2022-07-31 14:00:01,15.088338,0.0001855,53.2164,131.8323,61.3351,68.8753,0.0013345999999999,0.00021012,0.0,0 STARLINK-3614,1 51771U 22017D   22212.58334491  .00021012  00000-0  13346-2 0  9994,2 51771  53.2164 131.8323 0001855  61.3351  68.8753 15.08833800  1300,6917.899,95.438,541.048,538.481,0.0
51771.0,STARLINK-3614,PAYLOAD,2022-07-31 22:00:00,15.08864214,0.0001909999999999,53.2164,130.3366,61.5067,80.2987,-0.0039594999999999,-0.00062797,0.0,0 STARLINK-3614,1 51771U 22017D   22212.91667824 -.00062797  00000-0 -39595-2 0  9991,2 51771  53.2164 130.3366 0001910  61.5067  80.2987 15.08864214  1309,6917.806,95.436,540.993,538.35,0.0
51771.0,STARLINK-3614,PAYLOAD,2022-08-01 06:00:00,15.08808508,0.0001973,53.216,128.8413,55.0486,98.3567,0.0025183,0.00039984,0.0,0 STARLINK-3614,1 51771U 22017D   22213.25001157  .00039984  00000-0  25183-2 0  9998,2 51771  53.2160 128.8413 0001973  55.0486  98.3567 15.08808508 25317,6917.977,95.44,541.207,538.477,0.0
51771.0,STARLINK-3614,PAYLOAD,2022-08-01 14:00:01,15.08813915,0.0001846,53.216,127.3431,61.0387,103.9509,0.0020698,0.00032783,0.0,0 STARLINK-3614,1 51771U 22017D   22213.58334491  .00032783  00000-0  20698-2 0  9990,2 51771  53.2160 127.3431 0001846  61.0387 103.9509 15.08813915  1307,6917.96,95.439,541.102,538.548,0.0
51771.0,STARLINK-3614,PAYLOAD,2022-08-01 22:00:00,15.08851589,0.0001976,53.2161,125.8475,61.4701,115.0953,-0.0015953,-0.00025596,0.0,0 STARLINK-3614,1 51771U 22017D   22213.91667824 -.00025596  00000-0 -15953-2 0  9990,2 51771  53.2161 125.8475 0001976  61.4701 115.0953 15.08851589  1303,6917.845,95.437,541.077,538.3430000000002,0.0
51771.0,STARLINK-3614,PAYLOAD,2022-08-02 14:00:01,15.08824673,0.0001937,53.216,122.8537,61.937,137.8279,0.0024314,0.00038604,0.0,0 STARLINK-3614,1 51771U 22017D   22214.58334491  .00038604  00000-0  24314-2 0  9998,2 51771  53.2160 122.8537 0001937  61.9370 137.8279 15.08824673  1309,6917.927,95.439,541.132,538.452,0.0
51771.0,STARLINK-3614,PAYLOAD,2022-08-03 06:00:00,15.088181900000002,0.000205,53.2161,119.8625,55.9177,167.0461,0.0015309,0.00024146,0.0,0 STARLINK-3614,1 51771U 22017D   22215.25001157  .00024146  00000-0  15309-2 0  9993,2 51771  53.2161 119.8625 0002050  55.9177 167.0461 15.08818190 25625,6917.946999999999,95.439,541.23,538.394,0.0
51771.0,STARLINK-3614,PAYLOAD,2022-08-03 14:00:01,15.08810954,0.0001934,53.2163,118.3643,61.9987,172.5539,0.0027364,0.00043497,0.0,0 STARLINK-3614,1 51771U 22017D   22215.58334491  .00043497  00000-0  27364-2 0  9993,2 51771  53.2163 118.3643 0001934  61.9987 172.5539 15.08810954  1303,6917.969,95.439,541.172,538.496,0.0
51771.0,STARLINK-3614,PAYLOAD,2022-08-03 22:00:01,15.08849117,0.0002058,53.2165,116.869,61.0688,185.1233,-0.001334,-0.00021462,0.0,0 STARLINK-3614,1 51771U 22017D   22215.91668981 -.00021462  00000-0 -13340-2 0  9993,2 51771  53.2165 116.8690 0002058  61.0688 185.1233 15.08849117  1301,6917.853,95.437,541.141,538.294,0.0
51771.0,STARLINK-3614,PAYLOAD,2022-08-04 06:00:00,15.08839607,0.0002108,53.2163,115.3731,57.6109,200.1133,0.00079023,0.00012311,0.0,0 STARLINK-3614,1 51771U 22017D   22216.25001157  .00012311  00000-0  79023-3 0  9999,2 51771  53.2163 115.3731 0002108  57.6109 200.1133 15.08839607 25771,6917.882,95.438,541.205,538.288,0.0
51771.0,STARLINK-3614,PAYLOAD,2022-08-04 14:00:01,15.08828013,0.000197,53.2166,113.8749,64.14699999999999,205.1861,0.0024042,0.0003816999999999,0.0,0 STARLINK-3614,1 51771U 22017D   22216.58334491  .00038170  00000-0  24042-2 0  9996,2 51771  53.2166 113.8749 0001970  64.1470 205.1861 15.08828013  1301,6917.917,95.438,541.145,538.419,0.0
51771.0,STARLINK-3614,PAYLOAD,2022-08-04 22:00:00,15.08855877,0.0002025,53.2168,112.3797,61.3204,219.6107,-0.0031419,-0.00049968,0.0,0 STARLINK-3614,1 51771U 22017D   22216.91667824 -.00049968  00000-0 -31419-2 0  9997,2 51771  53.2168 112.3797 0002025  61.3204 219.6107 15.08855877  1307,6917.831999999999,95.437,541.0980000000002,538.2959999999998,0.0
51771.0,STARLINK-3614,PAYLOAD,2022-08-05 06:00:02,15.08833713,0.0002016,53.2166,110.8836,57.8406,234.7443,8.7515e-05,1.105e-05,0.0,0 STARLINK-3614,1 51771U 22017D   22217.25002315  .00001105  00000-0  87515-4 0  9992,2 51771  53.2166 110.8836 0002016  57.8406 234.7443 15.08833713 25926,6917.9,95.438,541.159,538.37,0.0
51771.0,STARLINK-3614,PAYLOAD,2022-08-05 14:00:01,15.08812515,0.0001896,53.2168,109.3856,65.3452,238.8373,0.0031881,0.00050778,0.0,0 STARLINK-3614,1 51771U 22017D   22217.58335648  .00050778  00000-0  31881-2 0  9999,2 51771  53.2168 109.3856 0001896  65.3452 238.8373 15.08812515  1303,6917.964,95.439,541.141,538.518,0.0
51771.0,STARLINK-3614,PAYLOAD,2022-08-05 22:00:00,15.08852014,0.0001992,53.2169,107.8907,62.4097,253.2933,-0.0012438,-0.00020036,0.0,0 STARLINK-3614,1 51771U 22017D   22217.91667824 -.00020036  00000-0 -12438-2 0  9993,2 51771  53.2169 107.8907 0001992  62.4097 253.2933 15.08852014  1305,6917.844,95.437,541.087,538.331,0.0
51771.0,STARLINK-3614,PAYLOAD,2022-08-06 08:00:01,15.08871725,0.0001933,53.2168,106.0199,61.3265,358.8728,-0.0048003,-0.00075948,0.0,0 STARLINK-3614,1 51771U 22017D   22218.33334491 -.00075948  00000-0 -48003-2 0  9990,2 51771  53.2168 106.0199 0001933  61.3265 358.8728 15.08871725 26084,6917.783,95.436,540.986,538.311,0.0
51771.0,STARLINK-3614,PAYLOAD,2022-08-06 14:00:01,15.08801248,0.0001788,53.2168,104.8966,66.8916,272.0256,0.0032436,0.00051658,0.0,0 STARLINK-3614,1 51771U 22017D   22218.58334491  .00051658  00000-0  32436-2 0  9990,2 51771  53.2168 104.8966 0001788  66.8916 272.0256 15.08801248  1307,6917.999,95.44,541.101,538.627,0.0
51771.0,STARLINK-3614,PAYLOAD,2022-08-06 20:27:12,15.08814311,0.0002558,53.2189,103.691,91.7532,268.3753,-0.00025726,-4.378e-05,0.0,0 STARLINK-3614,1 51771U 22017D   22218.85223365 -.00004378  00000-0 -25726-3 0  9991,2 51771  53.2189 103.6910 0002558  91.7532 268.3753 15.08814311 24718,6917.959,95.439,541.594,538.054,0.0
51771.0,STARLINK-3614,PAYLOAD,2022-08-06 22:00:00,15.08838705,0.0001906,53.2169,103.4018,63.062,287.4243,-0.0012493,-0.00020115,0.0,0 STARLINK-3614,1 51771U 22017D   22218.91667824 -.00020115  00000-0 -12493-2 0  9993,2 51771  53.2169 103.4018 0001906  63.0620 287.4243 15.08838705 26170,6917.884,95.438,541.068,538.431,0.0
51771.0,STARLINK-3614,PAYLOAD,2022-08-07 14:00:01,15.08816628,0.000182,53.2166,100.4078,69.3555,304.3123,0.0031352,0.00049931,0.0,0 STARLINK-3614,1 51771U 22017D   22219.58334491  .00049931  00000-0  31352-2 0  9998,2 51771  53.2166 100.4078 0001820  69.3555 304.3123 15.08816628  1305,6917.9519999999975,95.439,541.076,538.558,0.0
51771.0,STARLINK-3614,PAYLOAD,2022-08-07 20:17:58,15.08840046,0.0001908,53.2182,99.2302,65.6954,294.4237,3.82e-05,3.2e-06,0.0,0 STARLINK-3614,1 51771U 22017D   22219.84581181  .00000320  00000-0  38200-4 0  9997,2 51771  53.2182  99.2302 0001908  65.6954 294.4237 15.08840046 24869,6917.88,95.438,541.065,538.425,0.0
51771.0,STARLINK-3614,PAYLOAD,2022-08-08 06:00:00,15.08880354,0.0001867,53.2165,97.4166,61.9423,334.9196,-0.0035161,-0.00055876,0.0,0 STARLINK-3614,1 51771U 22017D   22220.25001157 -.00055876  00000-0 -35161-2 0  9993,2 51771  53.2165  97.4166 0001867  61.9423 334.9196 15.08880354 26370,6917.757,95.435,540.914,538.331,0.0
51771.0,STARLINK-3614,PAYLOAD,2022-08-08 09:01:02,15.0885131,0.0001933,53.2182,96.8514,65.4859,294.6335,0.00010194,1.335e-05,0.0,0 STARLINK-3614,1 51771U 22017D   22220.37572125  .00001335  00000-0  10194-3 0  9993,2 51771  53.2182  96.8514 0001933  65.4859 294.6335 15.08851310 26394,6917.846,95.437,541.048,538.374,0.0
51771.0,STARLINK-3614,PAYLOAD,2022-08-08 22:00:00,15.08871903,0.0001819,53.2166,94.4242,63.2117,356.8791,-0.0032893,-0.00052304,0.0,0 STARLINK-3614,1 51771U 22017D   22220.91667824 -.00052304  00000-0 -32893-2 0  9997,2 51771  53.2166  94.4242 0001819  63.2117 356.8791 15.08871903  1305,6917.783,95.436,540.906,538.39,0.0
51771.0,STARLINK-3614,PAYLOAD,2022-08-09 06:00:00,15.08861975,0.0001696999999999,53.2166,92.9275,59.1685,12.5264,-0.0040636,-0.00064421,0.0,0 STARLINK-3614,1 51771U 22017D   22221.25001157 -.00064421  00000-0 -40636-2 0  9993,2 51771  53.2166  92.9275 0001697  59.1685  12.5264 15.08861975 26522,6917.813,95.436,540.852,538.504,0.0
51771.0,STARLINK-3614,PAYLOAD,2022-08-09 14:00:01,15.087962300000004,0.000158,53.2167,91.4298,66.236,17.0561,0.0027789,0.00044163,0.0,0 STARLINK-3614,1 51771U 22017D   22221.58334491  .00044163  00000-0  27789-2 0  9992,2 51771  53.2167  91.4298 0001580  66.2360  17.0561 15.08796230  1302,6918.014,95.44,540.972,538.786,0.0
51771.0,STARLINK-3614,PAYLOAD,2022-08-09 22:00:00,15.08823166,0.0001725,53.2167,89.9353,60.2871,34.5661,-0.0004951,-8.155e-05,0.0,0 STARLINK-3614,1 51771U 22017D   22221.91667824 -.00008155  00000-0 -49510-3 0  9998,2 51771  53.2167  89.9353 0001725  60.2871  34.5661 15.08823166 26624,6917.932,95.439,540.99,538.604,0.0
51771.0,STARLINK-3614,PAYLOAD,2022-08-10 14:00:01,15.08735195,0.000162,53.217,86.9408,64.5514,53.4806,0.0079521,0.00128213,0.0,0 STARLINK-3614,1 51771U 22017D   22222.58334491  .00128213  00000-0  79521-2 0  9993,2 51771  53.2170  86.9408 0001620  64.5514  53.4806 15.08735195  1304,6918.201,95.444,541.187,538.945,0.0
51771.0,STARLINK-3614,PAYLOAD,2022-08-10 17:07:18,15.08849858,0.0001631999999999,53.2171,86.3575,63.9989,40.9054,-0.0030819,-0.00049016,0.0,0 STARLINK-3614,1 51771U 22017D   22222.71341435 -.00049016  00000-0 -30819-2 0  9996,2 51771  53.2171  86.3575 0001632  63.9989  40.9054 15.08849858 26749,6917.85,95.437,540.844,538.586,0.0
